0 COSMOS 2251 DEB
1 34055U 93036JS  13282.36794708  .00008785  00000-0  23173-2 0   164
2 34055 074.1160 125.1248 0110479 205.7392 219.1620 14.45461628244777
0 COSMOS 2251 DEB
1 34055U 93036JS  13283.76522640  .00008754  00000-0  23088-2 0   175
2 34055 074.1161 122.5322 0110411 202.7615 290.1809 14.45475893244983
0 COSMOS 2251 DEB
1 34055U 93036JS  13285.34214922  .00006756  00000-0  17835-2 0   186
2 34055 074.1159 119.6061 0110339 199.3919 216.1097 14.45491957245206
0 COSMOS 2251 DEB
1 34055U 93036JS  13287.35117222  .00007638  00000-0  20146-2 0   194
2 34055 074.1152 115.8777 0110226 195.1526 230.6728 14.45514339245497
0 COSMOS 2251 DEB
1 34055U 93036JS  13288.95329649  .00011049  00000-0  29080-2 0   208
2 34055 074.1148 112.9042 0110108 191.7614 287.9760 14.45542699245732
0 COSMOS 2251 DEB
1 34055U 93036JS  13290.32695076  .00010655  00000-0  28036-2 0   215
2 34055 074.1147 110.3550 0110076 188.8547 236.4601 14.45562610245922
0 COSMOS 2251 DEB
1 34055U 93036JS  13292.46535360  .00008714  00000-0  22937-2 0   229
2 34055 074.1151 106.3858 0109896 184.3130 204.9067 14.45597104246237
0 COSMOS 2251 DEB
1 34055U 93036JS  13294.69918345  .00011255  00000-0  29583-2 0   233
2 34055 074.1158 102.2398 0109708 179.5781 310.2234 14.45626957246560
